#dP2019  2 14  0  0  0.00000000      96 __u+U ITR00 FIT  IAC
## 2040 345600.00000000   900.00000000 58528 0.0000000000000
+   92   C02C03C05C06C07C08C09C10C11C12C13C14C16E01E02E03E04
+        E05E07E08E09E11E12E13E14E15E18E19E21E24E25E26E27E30
+        E31E33E36G01G02G03G04G05G06G07G08G09G10G11G12G13G14
+        G15G16G17G18G19G20G21G22G23G24G25G26G27G28G29G30G31
+        G32R01R02R03R04R05R07R08R09R10R11R13R14R15R16R17R18
+        R19R20R21R22R23R24R26  0  0  0  0  0  0  0  0  0  0
++        12 13 12  8  9  9  8  8  9  8  8  8  9  5  6  6  5
++         6  6  6  5  6  5  5  6  6  5  5  6  5  5  5  6  6
++         6  5  6  3  4  4  4  4  4  4  4  3  4  4  4  4  4
++         4  4  4  4  3  4  4  4  4  4  4  4  4  3  4  3  4
++         4  5  5  5  6  6  5  5  5  6  6  6  6  6  5  5  5
++         5  5  6  6  6  6  9  0  0  0  0  0  0  0  0  0  0
%c M  cc GPS ccc cccc cccc cccc cccc ccccc ccccc ccccc ccccc
%c cc cc ccc ccc cccc cccc cccc cccc ccccc ccccc ccccc ccccc
%f  0.0000000  0.000000000  0.00000000000  0.000000000000000
%f  0.0000000  0.000000000  0.00000000000  0.000000000000000
%i    0    0    0    0      0      0      0      0         0
%i    0    0    0    0      0      0      0      0         0
/*                                                          
/*   RSA / INFORMATION & ANALYSIS CENTER (IAC) OF MCC       
/*   ULTRA-RAPID DETERMINATION                              
/* PCV:IGS14_2038 OL/AL:FES2004  NONE     YN ORB:CoN CLK:CoN
*  2019 02 14 11  0  0.00000000
PC02   4315.423271  41934.303816   -916.806395   -317.240556
PC03 -14814.266500  39438.234127    309.062961     46.428920
PC05  21864.845097  36007.575367  -1217.417920    -15.031288
PC06  -5547.206552  30243.342156 -28420.811992    403.582514
PC07 -20005.092196  23789.492167  28418.191262    147.521692
PC08 -19942.463879  37311.629831    727.467676    111.418807
PC09   4345.758421  36755.831114 -19690.090959    531.070120
PC10  -5260.779363  25967.120234  32882.946070   -492.797091
PC11 -13491.594321 -16470.651116  18070.428786     -5.145049
PC12   1724.540069 -26965.048756  -6735.770304    420.161080
PC13 -10863.354153  39115.856081 -11795.381306   -541.481776
PC14 -17313.056972 -17622.045745  13086.707001    853.562950
PC16  -4017.520804  30806.417734 -28435.992640   -211.587723
PE01   6028.009301 -17235.529347 -23298.590589   -542.258215
PE02  -5998.997269  17233.883181  23306.567951     47.515767
PE03   3849.398430  22912.080559 -18349.331608   -133.455073
PE04 -19337.456738 -22322.124107   2011.988746   -220.979155
PE05 -14013.845660  10071.385466 -24050.103009    107.717725
PE07  23603.959434   8603.516699  15661.769694   -131.443701
PE08  19584.157101  22117.966658  -1940.457172   6404.361644
PE09 -23597.309616  -8453.233255 -15731.760695   6528.210289
PE11 -17000.624365    722.450023  24222.567015   5719.701070
PE12  -8184.426776 -20250.066726  19999.658617   6165.928253
PE13  16884.530318   -661.877573 -24290.147436    382.967541
PE14  -9705.642877 -25659.545166    882.704866   6445.045525
PE15   8434.084949  19886.831848 -20219.863698    920.056527
PE18  18979.526999  17644.107743 -15197.646440   5530.847155
PE19  -2114.320779 -22071.241432  19613.020806     -8.401257
PE21  24516.194337 -13025.676664 -10271.062130   -519.490074
PE24 -28422.546270   1262.203034  -8226.209517   6233.771374
PE25 -24548.315080  13003.944623  10227.011452   1893.636840
PE26  15771.663192 -20669.757671 -14135.584836   4904.933583
PE27  28270.526621  -1105.399668   8692.217975    529.406139
PE30  15798.503415  11343.333448  22299.156487   5107.752464
PE31 -15440.237030 -11434.021423 -22514.113031    906.920444
PE33   4960.128702 -28865.109012   4333.439126    847.972771
PE36 -15485.628609  20876.311157  14168.700076    747.692391
PG01 -13190.503279  22408.176970  -4684.609739   -163.063156
PG02  19179.338059  -9790.072438 -14824.341127   -139.563174
PG03  -9580.396457  13410.386113 -20848.022928    182.872653
PG04  10454.737609  24375.201935   1419.119711    113.144207
PG05  25285.858354  -3034.983649   7778.593464      1.077319
PG06  15780.760929   2921.852788 -21126.910508    275.985583
PG07  -1362.200012  20696.075691  16563.731470     32.765989
PG08 -10015.072309  12917.679032  20941.949589   -132.716611
PG09   7192.342607  25103.644766  -4871.083704    458.711113
PG10 -20691.153857 -11304.136713  12470.239301    116.976917
PG11  -9303.217559  24353.172154   5144.548280   -660.401437
PG12  12221.303322 -11622.393851 -20673.435281    268.048781
PG13  14320.541939  -4496.882597  21793.979948    -74.974373
PG14 -16388.576263 -12242.049608 -16732.669360    -91.420946
PG15   8013.175495 -15838.229379  19387.970628   -327.902218
PG16 -25115.260731    799.458354   9087.427860    -19.142137
PG17  14100.703939  20195.805546  -9649.896789      9.628799
PG18 -17482.863087  19108.461479   5055.551467     25.860515
PG19  16035.346397  12225.679405 -17524.873568   -352.604628
PG20 -12373.293325 -14078.736945  18757.338354    522.192285
PG21  -2761.954532 -19687.548492  18476.122165   -250.382197
PG22 -17231.361580  11373.032373 -16443.299337   -644.985002
PG23  -1235.318361  22185.787513 -13924.792945   -197.279546
PG24  14877.627331 -21785.630562    -49.612759    -62.146784
PG25   -980.316559 -15239.180493 -21949.859447   -720.263030
PG26 -26456.681103  -3199.975527   -684.885940    124.136550
PG27 -15168.581407   1622.494302  21684.712904    -67.454878
PG28  18298.105899  13622.289869  14139.167213    764.560933
PG29  -2449.610046 -24926.953818  -8862.497746    270.785186
PG30   8643.578772  13616.199143  21093.330861    -52.507481
PG31 -17172.598865  -1342.270009 -20326.506892     58.729213
PG32 -16472.130214 -17198.463803 -11833.537116   -227.368338
PR01  -2660.783514 -14045.501729  21120.832144     39.415222
PR02 -18687.846471 -16376.006655   5921.234635    354.282280
PR03 -21317.273110  -8060.954449 -11466.673701     -8.635060
PR04 -11082.597740   5293.170103 -22346.004915    295.145535
PR05   4819.014429  14813.444857 -20185.243572     22.113351
PR07  21158.246298   7665.879597  12004.601976    -57.896992
PR08  11680.677764  -4791.188148  22211.451603     19.075915
PR09  12218.118205   5876.788714  21630.697980     54.236547
PR10  22344.486563  -4374.071326  11553.382676     42.007758
PR11  20831.809452 -13236.820804  -6509.582322    -56.693122
PR13 -10914.829998  -6321.701452 -22192.259173    -20.148593
PR14 -22328.759347   4423.535949 -11497.724657     35.970356
PR15 -21235.562561  12937.624325   5724.889227     99.898890
PR16  -7774.353502  14324.277725  19640.450759     11.042406
PR17 -10506.479152  -2135.149365  23160.558155    204.443455
PR18  -9457.652133  15670.635623  17756.826534     32.652491
PR19  -3877.831438  25075.253607   2616.440499    -61.241354
PR20   4943.972572  19506.288090 -15628.878201   -368.786338
PR21  10476.569999   1549.589291 -23197.816675    -31.229209
PR22   8838.169408 -17932.507330 -15911.534164     -4.170523
PR23   1173.974715 -25371.217170   2404.112995    209.502209
PR24  -5943.202956 -18312.939245  16726.695591   -177.176050
PR26   4446.262821  20941.613230 -13868.344535     -4.045834
EOF
